STARLINK-36723
1 67915U 26036M   26061.16668981 -.01439299  00000+0 -56524-2 0  9997
2 67915  42.9953 295.8724 0001807 274.9880 278.6407 15.88783167  2430
